CSS (TIANHE)            
1 48274U 21035A   24025.82270560  .00019616  00000+0  21503-3 0  9995
2 48274  41.4666 239.0335 0008396 238.9648 121.0368 15.62738350156659
